SPACEMOBILE-008         
1 69589U 26139A   26197.07775194  .00000112  00000+0  23292-4 0  9998
2 69589  52.9949 131.4004 0005099  58.6055 301.5434 15.12802643  4356
SPACEMOBILE-009         
1 69590U 26139B   26197.07977669  .00000164  00000+0  26252-4 0  9997
2 69590  52.9940 131.4074 0005334  54.4529 305.6959 15.12696048  4355
SPACEMOBILE-010         
1 69591U 26139C   26197.08298715  .00000357  00000+0  37307-4 0  9994
2 69591  52.9947 131.4304 0005267  46.4415 313.7013 15.12529017  4362
