OBJECT_NAME,OBJECT_ID,EPOCH,MEAN_MOTION,ECCENTRICITY,INCLINATION,RA_OF_ASC_NODE,ARG_OF_PERICENTER,MEAN_ANOMALY,EPHEMERIS_TYPE,CLASSIFICATION_TYPE,NORAD_CAT_ID,ELEMENT_SET_NO,REV_AT_EPOCH,BSTAR,MEAN_MOTION_DOT,MEAN_MOTION_DDOT
SPACEMOBILE-008,2026-139A,2026-07-16T01:51:57.767616,15.12802643,.0005099,52.9949,131.4004,58.6055,301.5434,0,U,69589,999,435,.23292E-4,.112E-5,0
SPACEMOBILE-009,2026-139B,2026-07-16T01:54:52.706016,15.12696048,.0005334,52.9940,131.4074,54.4529,305.6959,0,U,69590,999,435,.26252E-4,.164E-5,0
SPACEMOBILE-010,2026-139C,2026-07-16T01:59:30.089760,15.12529017,.0005267,52.9947,131.4304,46.4415,313.7013,0,U,69591,999,436,.37307E-4,.357E-5,0
